GLOBALSTAR M004         
1 25163U 98008B   25139.77577185 -.00000063  00000+0  22482-3 0  9999
2 25163  51.9975 140.8272 0002994 228.7473 302.1588 12.63396137258199
GLOBALSTAR M014         
1 25306U 98023A   25139.55311010 -.00000050  00000+0  50646-3 0  9993
2 25306  51.9833 235.8264 0000583 280.7131  93.5192 11.65480707187830
GLOBALSTAR M006         
1 25307U 98023B   25139.84173562 -.00000010  00000+0  13539-2 0  9999
2 25307  51.9945 286.5096 0003606  64.8818  83.0707 11.58175754213654
GLOBALSTAR M015         
1 25308U 98023C   25139.45139602 -.00000086  00000+0 -29482-3 0  9993
2 25308  51.9852  24.6342 0013031  26.5258 144.3816 11.48859097190770
GLOBALSTAR M008         
1 25309U 98023D   25140.11818992 -.00000052  00000+0  34342-3 0  9998
2 25309  51.9972 279.4337 0003353 117.8339  53.4187 12.36069321234689
